NORAD_CAT_ID,OBJECT_NAME,OBJECT_TYPE,EPOCH,MEAN_MOTION,ECCENTRICITY,INCLINATION,RA_OF_ASC_NODE,ARG_OF_PERICENTER,MEAN_ANOMALY,BSTAR,MEAN_MOTION_DOT,MEAN_MOTION_DDOT,TLE_LINE0,TLE_LINE1,TLE_LINE2,SEMIMAJOR_AXIS,PERIOD,APOGEE,PERIGEE,DECAYED
51777.0,STARLINK-3625,PAYLOAD,2022-04-02 14:00:01,15.73107753,0.0001042,53.2142,325.7493,95.6895,144.0816,0.00079062,0.00111378,0.0,0 STARLINK-3625,1 51777U 22017K   22092.58335648  .00111378  00000-0  79062-3 0  9994,2 51777  53.2142 325.7493 0001042  95.6895 144.0816 15.73107753  6894,6728.158,91.539,350.724,349.32199999999995,0.0
51777.0,STARLINK-3625,PAYLOAD,2022-04-02 22:00:01,15.73216831,0.0001085,53.2143,324.1018,85.3494,243.313,-0.00063271,-0.00088549,0.0,0 STARLINK-3625,1 51777U 22017K   22092.91668981 -.00088549  00000-0 -63271-3 0  9990,2 51777  53.2143 324.1018 0001085  85.3494 243.3130 15.73216831  3706,6727.847,91.532,350.44199999999995,348.982,0.0
51777.0,STARLINK-3625,PAYLOAD,2022-04-03 04:00:00,15.73128816,0.000102,53.2142,322.8649,79.0542,226.2108,0.00016996,0.00023227,0.0,0 STARLINK-3625,1 51777U 22017K   22093.16667824  .00023227  00000-0  16996-3 0  9995,2 51777  53.2142 322.8649 0001020  79.0542 226.2108 15.73128816  6997,6728.098000000001,91.537,350.649,349.277,0.0
51777.0,STARLINK-3625,PAYLOAD,2022-04-03 22:00:00,15.73128305,0.0001244,53.2141,319.1535,81.2556,153.9388,0.00037732,0.00052503,0.0,0 STARLINK-3625,1 51777U 22017K   22093.91667824  .00052503  00000-0  37732-3 0  9998,2 51777  53.2141 319.1535 0001244  81.2556 153.9388 15.73128305  7100,6728.1,91.537,350.802,349.12800000000016,0.0
51777.0,STARLINK-3625,PAYLOAD,2022-04-04 14:00:01,15.7322169,0.0001284999999999,53.2138,315.8522,96.212,316.7868,-0.00013636,-0.0001973,0.0,0 STARLINK-3625,1 51777U 22017K   22094.58334491 -.00019730  00000-0 -13636-3 0  9997,2 51777  53.2138 315.8522 0001285  96.2120 316.7868 15.73221690  3708,6727.833000000001,91.532,350.56300000000016,348.834,0.0
51777.0,STARLINK-3625,PAYLOAD,2022-04-04 22:00:00,15.73165293,0.0001356,53.2139,314.2046,89.1549,52.7649,0.00055908,0.00078462,0.0,0 STARLINK-3625,1 51777U 22017K   22094.91667824  .00078462  00000-0  55908-3 0  9996,2 51777  53.2139 314.2046 0001356  89.1549  52.7649 15.73165293  3708,6727.994000000002,91.535,350.771,348.94699999999995,0.0
51777.0,STARLINK-3625,PAYLOAD,2022-04-05 00:00:00,15.73162639,0.0001328,53.2142,313.7927,86.5147,167.6334,0.00082251,0.00116237,0.0,0 STARLINK-3625,1 51777U 22017K   22095.00001157  .00116237  00000-0  82251-3 0  9992,2 51777  53.2142 313.7927 0001328  86.5147 167.6334 15.73162639  7272,6728.002,91.535,350.76,348.973,0.0
51777.0,STARLINK-3625,PAYLOAD,2022-04-05 06:00:00,15.73265637,0.0001184,53.2139,312.5543,91.1914,139.6233,-0.00072387,-0.00101278,0.0,0 STARLINK-3625,1 51777U 22017K   22095.25001157 -.00101278  00000-0 -72387-3 0  9999,2 51777  53.2139 312.5543 0001184  91.1914 139.6233 15.73265637  7317,6727.708000000001,91.529,350.37,348.776,0.0
51777.0,STARLINK-3625,PAYLOAD,2022-04-05 14:00:01,15.73196132,0.0001190999999999,53.2142,310.9032,98.8175,221.0152,-0.000597,-0.00083562,0.0,0 STARLINK-3625,1 51777U 22017K   22095.58335648 -.00083562  00000-0 -59700-3 0  9999,2 51777  53.2142 310.9032 0001191  98.8175 221.0152 15.73196132  3705,6727.906,91.533,350.57199999999995,348.97,0.0
51777.0,STARLINK-3625,PAYLOAD,2022-04-05 22:00:00,15.73086722,0.0001242,53.214,309.2559,87.0135,321.6664,0.0010562,0.0014955,0.0,0 STARLINK-3625,1 51777U 22017K   22095.91667824  .00149550  00000-0  10562-2 0  9990,2 51777  53.2140 309.2559 0001242  87.0135 321.6664 15.73086722  7422,6728.218000000003,91.54,350.9190000000001,349.24800000000016,0.0
51777.0,STARLINK-3625,PAYLOAD,2022-04-06 14:00:01,15.73272553,0.000111,53.2137,305.9546,103.7982,122.6996,0.00015337,0.00021025,0.0,0 STARLINK-3625,1 51777U 22017K   22096.58334491  .00021025  00000-0  15337-3 0  9997,2 51777  53.2137 305.9546 0001110 103.7982 122.6996 15.73272553  7524,6727.688,91.529,350.3,348.807,0.0
51777.0,STARLINK-3625,PAYLOAD,2022-04-06 22:00:00,15.73263714,9.93e-05,53.214,304.307,85.7447,229.7877,-0.00034761,-0.00049251,0.0,0 STARLINK-3625,1 51777U 22017K   22096.91667824 -.00049251  00000-0 -34761-3 0  9998,2 51777  53.2140 304.3070 0000993  85.7447 229.7877 15.73263714  7588,6727.714,91.529,350.247,348.91,0.0
51777.0,STARLINK-3625,PAYLOAD,2022-04-07 04:00:00,15.73251264,9.05e-05,53.2138,303.069,83.3446,208.9498,-2.7821e-05,-4.53e-05,0.0,0 STARLINK-3625,1 51777U 22017K   22097.16667824 -.00004530  00000-0 -27821-4 0  9997,2 51777  53.2138 303.0690 0000905  83.3446 208.9498 15.73251264  7625,6727.749,91.53,350.223,349.005,0.0
51777.0,STARLINK-3625,PAYLOAD,2022-04-07 14:00:01,15.732509599999998,9.81e-05,53.2143,301.0055,95.6017,37.9071,-0.00058034,-0.00081456,0.0,0 STARLINK-3625,1 51777U 22017K   22097.58334491 -.00081456  00000-0 -58034-3 0  9995,2 51777  53.2143 301.0055 0000981  95.6017  37.9071 15.73250960  3702,6727.75,91.53,350.275,348.955,0.0
51777.0,STARLINK-3625,PAYLOAD,2022-04-07 20:00:01,15.73193387,9.79e-05,53.2138,299.77,80.2032,30.0566,0.00017599,0.00024143,0.0,0 STARLINK-3625,1 51777U 22017K   22097.83334491  .00024143  00000-0  17599-3 0  9992,2 51777  53.2138 299.7700 0000979  80.2032  30.0566 15.73193387  7728,6727.9140000000025,91.534,350.43800000000016,349.12,0.0
51777.0,STARLINK-3625,PAYLOAD,2022-04-07 22:00:00,15.73174913,0.0001056,53.214,299.358,76.9925,145.5036,0.00058205,0.00081777,0.0,0 STARLINK-3625,1 51777U 22017K   22097.91667824  .00081777  00000-0  58205-3 0  9995,2 51777  53.2140 299.3580 0001056  76.9925 145.5036 15.73174913  3693,6727.967,91.535,350.542,349.121,0.0
51777.0,STARLINK-3625,PAYLOAD,2022-04-08 14:00:03,15.732605800000002,0.0001249,53.2138,296.0566,92.8065,307.7362,-0.00052538,-0.00073899,0.0,0 STARLINK-3625,1 51777U 22017K   22098.58336806 -.00073899  00000-0 -52538-3 0  9993,2 51777  53.2138 296.0566 0001249  92.8065 307.7362 15.73260580  3706,6727.722,91.53,350.42800000000005,348.747,0.0
51777.0,STARLINK-3625,PAYLOAD,2022-04-08 22:00:00,15.73150879,0.0001207,53.2139,294.4092,80.0346,49.3504,0.0003644,0.00050723,0.0,0 STARLINK-3625,1 51777U 22017K   22098.91667824  .00050723  00000-0  36440-3 0  9990,2 51777  53.2139 294.4092 0001207  80.0346  49.3504 15.73150879  7898,6728.035,91.536,350.712,349.088,0.0
51777.0,STARLINK-3625,PAYLOAD,2022-04-09 14:00:01,15.73128638,0.0001158,53.2141,291.1081,87.7913,219.3759,0.00013898,0.0001887,0.0,0 STARLINK-3625,1 51777U 22017K   22099.58334491  .00018870  00000-0  13898-3 0  9994,2 51777  53.2141 291.1081 0001158  87.7913 219.3759 15.73128638  3707,6728.099,91.537,350.74300000000005,349.185,0.0
51777.0,STARLINK-3625,PAYLOAD,2022-04-09 16:00:00,15.73130023,0.0001104,53.214,290.6965,82.8869,336.4924,0.00014774,0.00020102,0.0,0 STARLINK-3625,1 51777U 22017K   22099.66667824  .00020102  00000-0  14774-3 0  9997,2 51777  53.2140 290.6965 0001104  82.8869 336.4924 15.73130023  8013,6728.095,91.537,350.702,349.217,0.0
51777.0,STARLINK-3625,PAYLOAD,2022-04-09 22:00:00,15.73147101,0.0001122,53.2138,289.4608,72.0105,324.0421,0.00077214,0.00108912,0.0,0 STARLINK-3625,1 51777U 22017K   22099.91667824  .00108912  00000-0  77214-3 0  9999,2 51777  53.2138 289.4608 0001122  72.0105 324.0421 15.73147101  8058,6728.045999999999,91.536,350.666,349.156,0.0
51777.0,STARLINK-3625,PAYLOAD,2022-04-10 14:00:01,15.73308735,0.0001027,53.2134,286.1598,86.0097,127.9135,-0.00043554,-0.00061582,0.0,0 STARLINK-3625,1 51777U 22017K   22100.58334491 -.00061582  00000-0 -43554-3 0  9999,2 51777  53.2134 286.1598 0001027  86.0097 127.9135 15.73308735  8150,6727.585,91.527,350.141,348.759,0.0
51777.0,STARLINK-3625,PAYLOAD,2022-04-10 22:00:00,15.732422199999998,0.0001072,53.2134,284.512,66.8255,236.1403,7.2431e-05,9.575e-05,0.0,0 STARLINK-3625,1 51777U 22017K   22100.91667824  .00009575  00000-0  72431-4 0  9994,2 51777  53.2134 284.5120 0001072  66.8255 236.1403 15.73242220  3719,6727.775,91.531,350.361,348.9190000000001,0.0
51777.0,STARLINK-3625,PAYLOAD,2022-04-11 12:00:00,15.73204655,0.0001363,53.2177,281.6059,79.8918,288.4828,2.2339e-06,-3.06e-06,0.0,0 STARLINK-3625,1 51777U 22017K   22101.50001157 -.00000306  00000-0  22339-5 0  9998,2 51777  53.2177 281.6059 0001363  79.8918 288.4828 15.73204655  8309,6727.882,91.533,350.664,348.83,0.0
51777.0,STARLINK-3625,PAYLOAD,2022-04-11 14:00:01,15.7320564,0.0001385999999999,53.2177,281.194,75.7561,44.8516,-1.4481e-05,-2.652e-05,0.0,0 STARLINK-3625,1 51777U 22017K   22101.58334491 -.00002652  00000-0 -14481-4 0  9991,2 51777  53.2177 281.1940 0001386  75.7561  44.8516 15.73205640  3697,6727.879,91.533,350.677,348.81199999999984,0.0
51777.0,STARLINK-3625,PAYLOAD,2022-04-11 20:00:01,15.731964800000002,0.0001388,53.2133,279.9752,67.6433,29.9139,0.00022568,0.00031165,0.0,0 STARLINK-3625,1 51777U 22017K   22101.83334491  .00031165  00000-0  22568-3 0  9992,2 51777  53.2133 279.9752 0001388  67.6433  29.9139 15.73196480  8359,6727.905,91.533,350.704,348.836,0.0
51777.0,STARLINK-3625,PAYLOAD,2022-04-11 22:00:00,15.73203047,0.000136,53.2132,279.563,65.16,144.6299,0.00016214,0.00022198,0.0,0 STARLINK-3625,1 51777U 22017K   22101.91667824  .00022198  00000-0  16214-3 0  9997,2 51777  53.2132 279.5630 0001360  65.1600 144.6299 15.73203047  3690,6727.886,91.533,350.666,348.836,0.0
51777.0,STARLINK-3625,PAYLOAD,2022-04-12 04:00:00,15.73219018,0.0001227,53.2127,278.3243,68.64,117.8502,-0.0002708,-0.00038482,0.0,0 STARLINK-3625,1 51777U 22017K   22102.16667824 -.00038482  00000-0 -27080-3 0  9993,2 51777  53.2127 278.3243 0001227  68.6400 117.8502 15.73219018  8407,6727.840999999999,91.532,350.531,348.88,0.0
51777.0,STARLINK-3625,PAYLOAD,2022-04-12 14:00:01,15.73180043,0.0001240999999999,53.213,276.2621,73.6195,314.011,-8.8936e-05,-0.00013071,0.0,0 STARLINK-3625,1 51777U 22017K   22102.58334491 -.00013071  00000-0 -88936-4 0  9995,2 51777  53.2130 276.2621 0001241  73.6195 314.0110 15.73180043  3698,6727.9519999999975,91.534,350.652,348.982,0.0
